ONEWEB-0395             
1 50475U 21132G   26182.96861443 -.00000197  00000+0 -59159-3 0  9990
2 50475  87.8878  18.1238 0002083  87.1395 272.9971 13.11418619217651
ONEWEB-0396             
1 50476U 21132H   26182.96316628 -.00000047  00000+0 -15168-3 0  9997
2 50476  87.9184 332.5156 0001782  89.4611 270.6726 13.18685458223582
ONEWEB-0397             
1 50477U 21132J   26183.13009317 -.00000005  00000+0 -46179-4 0  9993
2 50477  87.9184 332.4829 0001667  90.4085 269.7238 13.18686048223581
ONEWEB-0398             
1 50478U 21132K   26183.24159005 -.00000012  00000+0 -68340-4 0  9998
2 50478  87.8881  18.0612 0002164  92.0235 268.1141 13.11414448217585
ONEWEB-0399             
1 50479U 21132L   26182.99914447  .00000395  00000+0  10798-2 0  9993
2 50479  87.8884  18.1203 0001839  72.6346 287.4983 13.11414880217545
ONEWEB-0400             
1 50480U 21132M   26183.10817422 -.00000040  00000+0 -13366-3 0  9998
2 50480  87.9186 332.4766 0002028  97.2955 262.8407 13.18686001223570
ONEWEB-0401             
1 50481U 21132N   26183.15370074  .00000187  00000+0  44118-3 0  9990
2 50481  87.9188 332.4649 0001647  98.6300 261.5019 13.18685453223584
ONEWEB-0402             
1 50482U 21132P   26183.11660453  .00000014  00000+0  24649-5 0  9998
2 50482  87.9185 332.4612 0001356  95.9745 264.1542 13.18686611223602
ONEWEB-0403             
1 50483U 21132Q   26183.14189940 -.00000061  00000+0 -18836-3 0  9992
2 50483  87.9186 332.4809 0001909  91.2293 268.9058 13.18684896223565
ONEWEB-0404             
1 50484U 21132R   26182.98048026  .00000117  00000+0  29446-3 0  9992
2 50484  87.8883  18.1218 0002035  80.2967 279.8391 13.11417886217636
ONEWEB-0405             
1 50485U 21132S   26183.15536978  .00000091  00000+0  19918-3 0  9995
2 50485  87.9187 332.4631 0002281 102.2199 257.9189 13.18686851223963
ONEWEB-0406             
1 50486U 21132T   26183.14695440  .00000005  00000+0 -20155-4 0  9997
2 50486  87.9183 332.4804 0002086  81.1046 279.0322 13.18685730223599
ONEWEB-0407             
1 50487U 21132U   26183.14021095  .00000021  00000+0  19394-4 0  9997
2 50487  87.9187 332.4745 0001818 102.5848 257.5487 13.18687221223532
ONEWEB-0409             
1 50488U 21132V   26182.97879011  .00000172  00000+0  45041-3 0  9991
2 50488  87.8886  18.1108 0002064  83.3916 276.7447 13.11418042217522
ONEWEB-0412             
1 50489U 21132W   26183.12840622  .00000002  00000+0 -27571-4 0  9998
2 50489  87.9181 332.4847 0001539  96.5153 263.6155 13.18685937223624
ONEWEB-0413             
1 50490U 21132X   26183.13347234  .00000011  00000+0 -40846-5 0  9993
2 50490  87.9173 332.4814 0001618 102.1751 257.9562 13.18686463223563
ONEWEB-0414             
1 50491U 21132Y   26183.11829137 -.00000015  00000+0 -70747-4 0  9996
2 50491  87.9185 332.4675 0001706  92.5244 267.6083 13.18686302223590
ONEWEB-0417             
1 50492U 21132Z   26183.12671993 -.00000005  00000+0 -46180-4 0  9996
2 50492  87.9177 332.4844 0001967  89.8075 270.3282 13.18686165223577
ONEWEB-0418             
1 50493U 21132AA  26183.13669280 -.00000036  00000+0 -12399-3 0  9992
2 50493  87.9182 332.4830 0002023  89.2724 270.8640 13.18685417223637
ONEWEB-0419             
1 50494U 21132AB  26183.30727757  .00000041  00000+0  70861-4 0  9999
2 50494  87.9185 332.4490 0002138  94.6570 265.4807 13.18665702223572
ONEWEB-0420             
1 50495U 21132AC  26183.11996684 -.00000037  00000+0 -12773-3 0  9990
2 50495  87.9177 332.4878 0001820 101.9566 258.1770 13.18686801223546
ONEWEB-0421             
1 50496U 21132AD  26183.11323665  .00000054  00000+0  10447-3 0  9997
2 50496  87.9179 332.4869 0001540  88.0069 272.1240 13.18685950223587
ONEWEB-0424             
1 50497U 21132AE  26183.15033005 -.00000064  00000+0 -19471-3 0  9997
2 50497  87.9183 332.4784 0002240  96.9544 263.1844 13.18685751223616
ONEWEB-0426             
1 50498U 21132AF  26183.10901391  .00000021  00000+0  21007-4 0  9995
2 50498  87.9185 332.4776 0001761  73.0512 287.0813 13.18685540223558
ONEWEB-0427             
1 50499U 21132AG  26183.14864498 -.00000019  00000+0 -82024-4 0  9991
2 50499  87.9186 332.4590 0001917  89.3113 270.8239 13.18685253223580
ONEWEB-0429             
1 50500U 21132AH  26183.13514719  .00000063  00000+0  12602-3 0  9992
2 50500  87.9175 332.4854 0001799 100.7329 259.4005 13.18686624223553
ONEWEB-0430             
1 50501U 21132AJ  26183.12335288  .00000012  00000+0 -23555-5 0  9990
2 50501  87.9178 332.4857 0001885 104.4328 255.7014 13.18687878223591
ONEWEB-0432             
1 50502U 21132AK  26183.33335648  .00084815  00000+0  21410+0 0  9998
2 50502  87.9189 332.4296 0002189  97.1072 260.9976 13.18371165  5157
ONEWEB-0440             
1 50503U 21132AL  26183.14357981  .00000019  00000+0  15254-4 0  9990
2 50503  87.9188 332.4790 0001536  99.0692 261.0614 13.18686284223547
ONEWEB-0450             
1 50504U 21132AM  26183.13697641  .00000015  00000+0  61372-5 0  9999
2 50504  87.9173 332.4840 0001823 102.5216 257.6121 13.18686044223570
