OBJECT_NAME,OBJECT_ID,EPOCH,MEAN_MOTION,ECCENTRICITY,INCLINATION,RA_OF_ASC_NODE,ARG_OF_PERICENTER,MEAN_ANOMALY,EPHEMERIS_TYPE,CLASSIFICATION_TYPE,NORAD_CAT_ID,ELEMENT_SET_NO,REV_AT_EPOCH,BSTAR,MEAN_MOTION_DOT,MEAN_MOTION_DDOT
ONEWEB-0395,2021-132G,2026-07-01T23:14:48.286752,13.11418619,.00020832,87.8878,18.1238,87.1395,272.9971,0,U,50475,999,21765,-.59159295E-3,-.197E-5,0
ONEWEB-0396,2021-132H,2026-07-01T23:06:57.566592,13.18685458,.00017825,87.9184,332.5156,89.4611,270.6726,0,U,50476,999,22358,-.15168398E-3,-.47E-6,0
ONEWEB-0397,2021-132J,2026-07-02T03:07:20.049888,13.18686048,.00016671,87.9184,332.4829,90.4085,269.7238,0,U,50477,999,22358,-.46178825E-4,-.5E-7,0
ONEWEB-0398,2021-132K,2026-07-02T05:47:53.380320,13.11414448,.00021648,87.8881,18.0612,92.0235,268.1141,0,U,50478,999,21758,-.68340344E-4,-.12E-6,0
ONEWEB-0399,2021-132L,2026-07-01T23:58:46.082208,13.11414880,.00018392,87.8884,18.1203,72.6346,287.4983,0,U,50479,999,21754,.10797984E-2,.395E-5,0
ONEWEB-0400,2021-132M,2026-07-02T02:35:46.252608,13.18686001,.00020288,87.9186,332.4766,97.2955,262.8407,0,U,50480,999,22357,-.13365623E-3,-.4E-6,0
ONEWEB-0401,2021-132N,2026-07-02T03:41:19.743936,13.18685453,.00016474,87.9188,332.4649,98.6300,261.5019,0,U,50481,999,22358,.44118164E-3,.187E-5,0
ONEWEB-0402,2021-132P,2026-07-02T02:47:54.631392,13.18686611,.00013565,87.9185,332.4612,95.9745,264.1542,0,U,50482,999,22360,.2464928E-5,.14E-6,0
ONEWEB-0403,2021-132Q,2026-07-02T03:24:20.108160,13.18684896,.00019091,87.9186,332.4809,91.2293,268.9058,0,U,50483,999,22356,-.18836299E-3,-.61E-6,0
ONEWEB-0404,2021-132R,2026-07-01T23:31:53.494464,13.11417886,.00020359,87.8883,18.1218,80.2967,279.8391,0,U,50484,999,21763,.29446469E-3,.117E-5,0
ONEWEB-0405,2021-132S,2026-07-02T03:43:43.948992,13.18686851,.00022814,87.9187,332.4631,102.2199,257.9189,0,U,50485,999,22396,.19918397E-3,.91E-6,0
ONEWEB-0406,2021-132T,2026-07-02T03:31:36.860160,13.18685730,.00020862,87.9183,332.4804,81.1046,279.0322,0,U,50486,999,22359,-.2015514E-4,.5E-7,0
ONEWEB-0407,2021-132U,2026-07-02T03:21:54.226080,13.18687221,.00018183,87.9187,332.4745,102.5848,257.5487,0,U,50487,999,22353,.19393823E-4,.21E-6,0
ONEWEB-0409,2021-132V,2026-07-01T23:29:27.465504,13.11418042,.00020647,87.8886,18.1108,83.3916,276.7447,0,U,50488,999,21752,.4504147E-3,.172E-5,0
ONEWEB-0412,2021-132W,2026-07-02T03:04:54.297408,13.18685937,.00015399,87.9181,332.4847,96.5153,263.6155,0,U,50489,999,22362,-.27570739E-4,.2E-7,0
ONEWEB-0413,2021-132X,2026-07-02T03:12:12.010176,13.18686463,.0001618,87.9173,332.4814,102.1751,257.9562,0,U,50490,999,22356,-.4084557E-5,.11E-6,0
ONEWEB-0414,2021-132Y,2026-07-02T02:50:20.374368,13.18686302,.00017062,87.9185,332.4675,92.5244,267.6083,0,U,50491,999,22359,-.70747094E-4,-.15E-6,0
ONEWEB-0417,2021-132Z,2026-07-02T03:02:28.601952,13.18686165,.00019677,87.9177,332.4844,89.8075,270.3282,0,U,50492,999,22357,-.46179515E-4,-.5E-7,0
ONEWEB-0418,2021-132AA,2026-07-02T03:16:50.257920,13.18685417,.00020237,87.9182,332.4830,89.2724,270.8640,0,U,50493,999,22363,-.12398726E-3,-.36E-6,0
ONEWEB-0419,2021-132AB,2026-07-02T07:22:28.782048,13.18665702,.00021383,87.9185,332.4490,94.6570,265.4807,0,U,50494,999,22357,.70861439E-4,.41E-6,0
ONEWEB-0420,2021-132AC,2026-07-02T02:52:45.134976,13.18686801,.00018205,87.9177,332.4878,101.9566,258.1770,0,U,50495,999,22354,-.12773296E-3,-.37E-6,0
ONEWEB-0421,2021-132AD,2026-07-02T02:43:03.646560,13.18685950,.00015406,87.9179,332.4869,88.0069,272.1240,0,U,50496,999,22358,.1044669E-3,.54E-6,0
ONEWEB-0424,2021-132AE,2026-07-02T03:36:28.516320,13.18685751,.00022403,87.9183,332.4784,96.9544,263.1844,0,U,50497,999,22361,-.19471268E-3,-.64E-6,0
ONEWEB-0426,2021-132AF,2026-07-02T02:36:58.801824,13.18685540,.00017614,87.9185,332.4776,73.0512,287.0813,0,U,50498,999,22355,.21007302E-4,.21E-6,0
ONEWEB-0427,2021-132AG,2026-07-02T03:34:02.926272,13.18685253,.00019177,87.9186,332.4590,89.3113,270.8239,0,U,50499,999,22358,-.82023917E-4,-.19E-6,0
ONEWEB-0429,2021-132AH,2026-07-02T03:14:36.717216,13.18686624,.00017995,87.9175,332.4854,100.7329,259.4005,0,U,50500,999,22355,.12602417E-3,.63E-6,0
ONEWEB-0430,2021-132AJ,2026-07-02T02:57:37.688832,13.18687878,.00018852,87.9178,332.4857,104.4328,255.7014,0,U,50501,999,22359,-.2355511E-5,.12E-6,0
ONEWEB-0432,2021-132AK,2026-07-02T08:00:01.999872,13.18371165,.00021894,87.9189,332.4296,97.1072,260.9976,0,U,50502,999,515,.21409753E+0,.84815E-3,0
ONEWEB-0440,2021-132AL,2026-07-02T03:26:45.295584,13.18686284,.00015364,87.9188,332.4790,99.0692,261.0614,0,U,50503,999,22354,.15254358E-4,.19E-6,0
ONEWEB-0450,2021-132AM,2026-07-02T03:17:14.761824,13.18686044,.00018235,87.9173,332.4840,102.5216,257.6121,0,U,50504,999,22357,.6137201E-5,.15E-6,0
